[
    {
        "Altitude(m)": 554559.2523176502,
        "Argument of Periapsis(deg)": 0.026491964442854003,
        "Eccentricity": 0.0,
        "Inclination(deg)": 53.0,
        "Latitude(deg)": 26.715176171287315,
        "Longitude(deg)": 164.6574501739451,
        "Mean Anomaly(deg)": 145.82097147031033,
        "RAAN(deg)": 109.96057347411207,
        "Satellite Name": "Starlink Shell 1 490",
        "Satellite Number": 490,
        "Semi-Major Axis(m)": 6931778.249405717,
        "Time(s)": 760
    },
    {
        "Altitude(m)": 554495.7564560997,
        "Argument of Periapsis(deg)": 0.02684054292236524,
        "Eccentricity": 0.0,
        "Inclination(deg)": 53.0,
        "Latitude(deg)": 26.248416063756935,
        "Longitude(deg)": 165.08581110186103,
        "Mean Anomaly(deg)": 146.44780267386702,
        "RAAN(deg)": 109.96005470403459,
        "Satellite Name": "Starlink Shell 1 490",
        "Satellite Number": 490,
        "Semi-Major Axis(m)": 6931778.249405717,
        "Time(s)": 770
    },
    {
        "Altitude(m)": 554433.7453113279,
        "Argument of Periapsis(deg)": 0.027189121401876473,
        "Eccentricity": 0.0,
        "Inclination(deg)": 53.0,
        "Latitude(deg)": 25.780103232419663,
        "Longitude(deg)": 165.510430520516,
        "Mean Anomaly(deg)": 147.07463387742376,
        "RAAN(deg)": 109.95953593395711,
        "Satellite Name": "Starlink Shell 1 490",
        "Satellite Number": 490,
        "Semi-Major Axis(m)": 6931778.249405717,
        "Time(s)": 780
    },
    {
        "Altitude(m)": 554373.2685954298,
        "Argument of Periapsis(deg)": 0.02753769988138771,
        "Eccentricity": 0.0,
        "Inclination(deg)": 53.0,
        "Latitude(deg)": 25.31028086681352,
        "Longitude(deg)": 165.93140264505598,
        "Mean Anomaly(deg)": 147.70146508098048,
        "RAAN(deg)": 109.95901716387965,
        "Satellite Name": "Starlink Shell 1 490",
        "Satellite Number": 490,
        "Semi-Major Axis(m)": 6931778.249405717,
        "Time(s)": 790
    },
    {
        "Altitude(m)": 554314.3754282971,
        "Argument of Periapsis(deg)": 0.02788627836089895,
        "Eccentricity": 0.0,
        "Inclination(deg)": 53.0,
        "Latitude(deg)": 24.838991260567717,
        "Longitude(deg)": 166.34881989365877,
        "Mean Anomaly(deg)": 148.32829628453723,
        "RAAN(deg)": 109.95849839380219,
        "Satellite Name": "Starlink Shell 1 490",
        "Satellite Number": 490,
        "Semi-Major Axis(m)": 6931778.249405717,
        "Time(s)": 800
    },
    {
        "Altitude(m)": 554257.1143111711,
        "Argument of Periapsis(deg)": 0.02823485684041019,
        "Eccentricity": 0.0,
        "Inclination(deg)": 53.0,
        "Latitude(deg)": 24.36627583867847,
        "Longitude(deg)": 166.7627734043954,
        "Mean Anomaly(deg)": 148.95512748809392,
        "RAAN(deg)": 109.95797962372471,
        "Satellite Name": "Starlink Shell 1 490",
        "Satellite Number": 490,
        "Semi-Major Axis(m)": 6931778.249405717,
        "Time(s)": 810
    },
    {
        "Altitude(m)": 554201.533100457,
        "Argument of Periapsis(deg)": 0.028583435319921423,
        "Eccentricity": 0.0,
        "Inclination(deg)": 53.0,
        "Latitude(deg)": 23.892175184255727,
        "Longitude(deg)": 167.17335355381,
        "Mean Anomaly(deg)": 149.5819586916506,
        "RAAN(deg)": 109.95746085364723,
        "Satellite Name": "Starlink Shell 1 490",
        "Satellite Number": 490,
        "Semi-Major Axis(m)": 6931778.249405717,
        "Time(s)": 820
    },
    {
        "Altitude(m)": 554147.6789818249,
        "Argument of Periapsis(deg)": 0.028932013799432665,
        "Eccentricity": 0.0,
        "Inclination(deg)": 53.0,
        "Latitude(deg)": 23.416729064742025,
        "Longitude(deg)": 167.58064896418682,
        "Mean Anomaly(deg)": 150.20878989520736,
        "RAAN(deg)": 109.95694208356976,
        "Satellite Name": "Starlink Shell 1 490",
        "Satellite Number": 490,
        "Semi-Major Axis(m)": 6931778.249405717,
        "Time(s)": 830
    },
    {
        "Altitude(m)": 554095.5984446098,
        "Argument of Periapsis(deg)": 0.029280592278943897,
        "Eccentricity": 0.0,
        "Inclination(deg)": 53.0,
        "Latitude(deg)": 22.939976457596874,
        "Longitude(deg)": 167.98474702510393,
        "Mean Anomaly(deg)": 150.8356210987641,
        "RAAN(deg)": 109.95642331349228,
        "Satellite Name": "Starlink Shell 1 490",
        "Satellite Number": 490,
        "Semi-Major Axis(m)": 6931778.249405717,
        "Time(s)": 840
    },
    {
        "Altitude(m)": 554045.3372565195,
        "Argument of Periapsis(deg)": 0.029629170758455132,
        "Eccentricity": 0.0,
        "Inclination(deg)": 53.0,
        "Latitude(deg)": 22.46195557545089,
        "Longitude(deg)": 168.38573441626093,
        "Mean Anomaly(deg)": 151.46245230232074,
        "RAAN(deg)": 109.95590454341482,
        "Satellite Name": "Starlink Shell 1 490",
        "Satellite Number": 490,
        "Semi-Major Axis(m)": 6931778.249405717,
        "Time(s)": 850
    },
    {
        "Altitude(m)": 553996.9404386602,
        "Argument of Periapsis(deg)": 0.02997774923796637,
        "Eccentricity": 0.0,
        "Inclination(deg)": 53.0,
        "Latitude(deg)": 21.98270389073406,
        "Longitude(deg)": 168.78369595048574,
        "Mean Anomaly(deg)": 152.0892835058775,
        "RAAN(deg)": 109.95538577333735,
        "Satellite Name": "Starlink Shell 1 490",
        "Satellite Number": 490,
        "Semi-Major Axis(m)": 6931778.249405717,
        "Time(s)": 860
    },
    {
        "Altitude(m)": 553950.4522409127,
        "Argument of Periapsis(deg)": 0.030326327717477602,
        "Eccentricity": 0.0,
        "Inclination(deg)": 53.0,
        "Latitude(deg)": 21.502258159777536,
        "Longitude(deg)": 169.178715939225,
        "Mean Anomaly(deg)": 152.71611470943418,
        "RAAN(deg)": 109.95486700325988,
        "Satellite Name": "Starlink Shell 1 490",
        "Satellite Number": 490,
        "Semi-Major Axis(m)": 6931778.249405717,
        "Time(s)": 870
    },
    {
        "Altitude(m)": 553905.916117636,
        "Argument of Periapsis(deg)": 0.030674906196988847,
        "Eccentricity": 0.0,
        "Inclination(deg)": 53.0,
        "Latitude(deg)": 21.020654446399238,
        "Longitude(deg)": 169.57087703750085,
        "Mean Anomaly(deg)": 153.3429459129909,
        "RAAN(deg)": 109.9543482331824,
        "Satellite Name": "Starlink Shell 1 490",
        "Satellite Number": 490,
        "Semi-Major Axis(m)": 6931778.249405717,
        "Time(s)": 880
    },
    {
        "Altitude(m)": 553863.3747037647,
        "Argument of Periapsis(deg)": 0.031023484676500086,
        "Eccentricity": 0.0,
        "Inclination(deg)": 53.0,
        "Latitude(deg)": 20.53792814497498,
        "Longitude(deg)": 169.96026077065753,
        "Mean Anomaly(deg)": 153.96977711654768,
        "RAAN(deg)": 109.95382946310492,
        "Satellite Name": "Starlink Shell 1 490",
        "Satellite Number": 490,
        "Semi-Major Axis(m)": 6931778.249405717,
        "Time(s)": 890
    },
    {
        "Altitude(m)": 553822.8697912606,
        "Argument of Periapsis(deg)": 0.03137206315601132,
        "Eccentricity": 0.0,
        "Inclination(deg)": 53.0,
        "Latitude(deg)": 20.054114003004326,
        "Longitude(deg)": 170.34694806183518,
        "Mean Anomaly(deg)": 154.5966083201044,
        "RAAN(deg)": 109.95331069302745,
        "Satellite Name": "Starlink Shell 1 490",
        "Satellite Number": 490,
        "Semi-Major Axis(m)": 6931778.249405717,
        "Time(s)": 900
    },
    {
        "Altitude(m)": 553784.442305944,
        "Argument of Periapsis(deg)": 0.03172064163552255,
        "Eccentricity": 0.0,
        "Inclination(deg)": 53.0,
        "Latitude(deg)": 19.569246143181,
        "Longitude(deg)": 170.73101824721135,
        "Mean Anomaly(deg)": 155.22343952366109,
        "RAAN(deg)": 109.95279192294998,
        "Satellite Name": "Starlink Shell 1 490",
        "Satellite Number": 490,
        "Semi-Major Axis(m)": 6931778.249405717,
        "Time(s)": 910
    },
    {
        "Altitude(m)": 553748.132284771,
        "Argument of Periapsis(deg)": 0.0320692201150338,
        "Eccentricity": 0.0,
        "Inclination(deg)": 53.0,
        "Latitude(deg)": 19.083358084972645,
        "Longitude(deg)": 171.11254960467892,
        "Mean Anomaly(deg)": 155.85027072721772,
        "RAAN(deg)": 109.95227315287252,
        "Satellite Name": "Starlink Shell 1 490",
        "Satellite Number": 490,
        "Semi-Major Axis(m)": 6931778.249405717,
        "Time(s)": 920
    },
    {
        "Altitude(m)": 553713.9788534677,
        "Argument of Periapsis(deg)": 0.032417798594545036,
        "Eccentricity": 0.0,
        "Inclination(deg)": 53.0,
        "Latitude(deg)": 18.596482765721184,
        "Longitude(deg)": 171.49161988301452,
        "Mean Anomaly(deg)": 156.47710193077452,
        "RAAN(deg)": 109.95175438279504,
        "Satellite Name": "Starlink Shell 1 490",
        "Satellite Number": 490,
        "Semi-Major Axis(m)": 6931778.249405717,
        "Time(s)": 930
    },
    {
        "Altitude(m)": 553682.0202046252,
        "Argument of Periapsis(deg)": 0.03276637707405627,
        "Eccentricity": 0.0,
        "Inclination(deg)": 53.0,
        "Latitude(deg)": 18.108652561276937,
        "Longitude(deg)": 171.86830531859738,
        "Mean Anomaly(deg)": 157.10393313433121,
        "RAAN(deg)": 109.95123561271757,
        "Satellite Name": "Starlink Shell 1 490",
        "Satellite Number": 490,
        "Semi-Major Axis(m)": 6931778.249405717,
        "Time(s)": 940
    }
]